[{"OBJECT_NAME":"GAOFEN-9 05","OBJECT_ID":"2020-058A","EPOCH":"2026-03-10T00:01:50.876256","MEAN_MOTION":15.30293976,"ECCENTRICITY":0.0010522,"INCLINATION":97.2228,"RA_OF_ASC_NODE":111.963,"ARG_OF_PERICENTER":91.0204,"MEAN_ANOMALY":269.2242,"EPHEMERIS_TYPE":0,"CLASSIFICATION_TYPE":"U","NORAD_CAT_ID":46232,"ELEMENT_SET_NO":999,"REV_AT_EPOCH":30843,"BSTAR":0.00025120304,"MEAN_MOTION_DOT":7.299e-5,"MEAN_MOTION_DDOT":0},{"OBJECT_NAME":"STARLINK-35790","OBJECT_ID":"2025-294AB","EPOCH":"2026-03-09T06:34:44.257440","MEAN_MOTION":15.27597489,"ECCENTRICITY":0.00010936,"INCLINATION":43.0018,"RA_OF_ASC_NODE":40.5866,"ARG_OF_PERICENTER":244.0498,"MEAN_ANOMALY":116.0241,"EPHEMERIS_TYPE":0,"CLASSIFICATION_TYPE":"U","NORAD_CAT_ID":67055,"ELEMENT_SET_NO":999,"REV_AT_EPOCH":1473,"BSTAR":0.00089206523,"MEAN_MOTION_DOT":0.0002438,"MEAN_MOTION_DDOT":0}]
